[{"OBJECT_NAME":"STARLINK-36811","OBJECT_ID":"2026-032M","EPOCH":"2026-03-09T22:00:01.999584","MEAN_MOTION":15.7513277,"ECCENTRICITY":0.00015975,"INCLINATION":97.2849,"RA_OF_ASC_NODE":255.486,"ARG_OF_PERICENTER":96.6375,"MEAN_ANOMALY":268.0903,"EPHEMERIS_TYPE":0,"CLASSIFICATION_TYPE":"U","NORAD_CAT_ID":67808,"ELEMENT_SET_NO":999,"REV_AT_EPOCH":481,"BSTAR":0.0010691942,"MEAN_MOTION_DOT":0.00162008,"MEAN_MOTION_DDOT":0},{"OBJECT_NAME":"CZ-4B R\/B","OBJECT_ID":"2025-314B","EPOCH":"2026-03-09T17:50:42.473760","MEAN_MOTION":15.91792327,"ECCENTRICITY":0.00849963,"INCLINATION":97.3538,"RA_OF_ASC_NODE":150.3267,"ARG_OF_PERICENTER":114.2763,"MEAN_ANOMALY":246.7419,"EPHEMERIS_TYPE":0,"CLASSIFICATION_TYPE":"U","NORAD_CAT_ID":67301,"ELEMENT_SET_NO":999,"REV_AT_EPOCH":1092,"BSTAR":0.00075319096,"MEAN_MOTION_DOT":0.00343879,"MEAN_MOTION_DDOT":4.660623e-5}]
